{
    "links": {
        "self": "http://www.neowsapp.com/rest/v1/neo/3739065?api_key=iIulBulltgU6a56xZRHN4H3l9WmuAYTsLGpBGhQ2"
    },
    "id": "3739065",
    "neo_reference_id": "3739065",
    "name": "(2015 YC10)",
    "designation": "2015 YC10",
    "nasa_jpl_url": "http://ssd.jpl.nasa.gov/sbdb.cgi?sstr=3739065",
    "absolute_magnitude_h": 24.9,
    "estimated_diameter": {
        "kilometers": {
            "estimated_diameter_min": 0.0278326768,
            "estimated_diameter_max": 0.0622357573
        },
        "meters": {
            "estimated_diameter_min": 27.8326768072,
            "estimated_diameter_max": 62.2357573367
        },
        "miles": {
            "estimated_diameter_min": 0.0172944182,
            "estimated_diameter_max": 0.0386714948
        },
        "feet": {
            "estimated_diameter_min": 91.3145593761,
            "estimated_diameter_max": 204.1855621004
        }
    },
    "is_potentially_hazardous_asteroid": false,
    "close_approach_data": [
        {
            "close_approach_date": "2016-01-04",
            "close_approach_date_full": "2016-Jan-04 15:20",
            "epoch_date_close_approach": 1451920800000,
            "relative_velocity": {
                "kilometers_per_second": "15.6139552551",
                "kilometers_per_hour": "56210.2389184043",
                "miles_per_hour": "34926.8565101607"
            },
            "miss_distance": {
                "astronomical": "0.0267367424",
                "lunar": "10.4005927936",
                "kilometers": "3999759.713778688",
                "miles": "2485335.4396063744"
            },
            "orbiting_body": "Earth"
        },
        {
            "close_approach_date": "2105-05-15",
            "close_approach_date_full": "2105-May-15 05:52",
            "epoch_date_close_approach": 4271809920000,
            "relative_velocity": {
                "kilometers_per_second": "4.6580644445",
                "kilometers_per_hour": "16769.03200007",
                "miles_per_hour": "10419.6243558213"
            },
            "miss_distance": {
                "astronomical": "1.4679882778",
                "lunar": "571.0474400642",
                "kilometers": "219607919.543848286",
                "miles": "136458033.5614509068"
            },
            "orbiting_body": "Juptr"
        },
        {
            "close_approach_date": "2106-12-28",
            "close_approach_date_full": "2106-Dec-28 19:16",
            "epoch_date_close_approach": 4323006960000,
            "relative_velocity": {
                "kilometers_per_second": "20.2415303029",
                "kilometers_per_hour": "72869.5090903572",
                "miles_per_hour": "45278.2791345056"
            },
            "miss_distance": {
                "astronomical": "0.2099757648",
                "lunar": "81.6805725072",
                "kilometers": "31411927.165700976",
                "miles": "19518466.4574504288"
            },
            "orbiting_body": "Earth"
        },
        {
            "close_approach_date": "2192-05-23",
            "close_approach_date_full": "2192-May-23 20:18",
            "epoch_date_close_approach": 7018085880000,
            "relative_velocity": {
                "kilometers_per_second": "23.4699116322",
                "kilometers_per_hour": "84491.6818757994",
                "miles_per_hour": "52499.8453299932"
            },
            "miss_distance": {
                "astronomical": "0.3510349125",
                "lunar": "136.5525809625",
                "kilometers": "52514075.205636375",
                "miles": "32630733.225576975"
            },
            "orbiting_body": "Earth"
        }
    ],
    "orbital_data": {
        "orbit_id": "9",
        "orbit_determination_date": "2017-04-06 08:29:34",
        "first_observation_date": "2015-12-31",
        "last_observation_date": "2016-01-05",
        "data_arc_in_days": 5,
        "observations_used": 62,
        "orbit_uncertainty": "7",
        "minimum_orbit_intersection": ".000255613",
        "jupiter_tisserand_invariant": "3.328",
        "epoch_osculation": "2459000.5",
        "eccentricity": ".6373754316469242",
        "semi_major_axis": "2.242311893353466",
        "inclination": "5.324710558794571",
        "ascending_node_longitude": "285.8550262892617",
        "orbital_period": "1226.429130765047",
        "perihelion_distance": ".8131173824402687",
        "perihelion_argument": "236.4317490463861",
        "aphelion_distance": "3.671506404266663",
        "perihelion_time": "2458656.766564085040",
        "mean_anomaly": "100.8978291735405",
        "mean_motion": ".293535102004167",
        "equinox": "J2000",
        "orbit_class": {
            "orbit_class_type": "APO",
            "orbit_class_description": "Near-Earth asteroid orbits which cross the Earth’s orbit similar to that of 1862 Apollo",
            "orbit_class_range": "a (semi-major axis) > 1.0 AU; q (perihelion) < 1.017 AU"
        }
    },
    "is_sentry_object": false
}